NORAD_CAT_ID,OBJECT_NAME,OBJECT_TYPE,EPOCH,MEAN_MOTION,ECCENTRICITY,INCLINATION,RA_OF_ASC_NODE,ARG_OF_PERICENTER,MEAN_ANOMALY,BSTAR,MEAN_MOTION_DOT,MEAN_MOTION_DDOT,TLE_LINE0,TLE_LINE1,TLE_LINE2,SEMIMAJOR_AXIS,PERIOD,APOGEE,PERIGEE,DECAYED
50193.0,STARLINK-3261,PAYLOAD,2023-05-04 16:12:55,15.08843147,8.63e-05,53.2153,227.9221,80.0411,280.0678,8.438e-05,1.056e-05,0.0,0 STARLINK-3261,1 50193U 21125AP  23124.67564106  .00001056  00000-0  84380-4 0  9995,2 50193  53.2153 227.9221 0000863  80.0411 280.0678 15.08843147 79777,6917.871,95.437,540.333,539.139,0.0
50193.0,STARLINK-3261,PAYLOAD,2023-05-05 00:09:51,15.08842446,8.21e-05,53.2155,226.4357,83.3446,276.764,0.00015285,2.146e-05,0.0,0 STARLINK-3261,1 50193U 21125AP  23125.00684204  .00002146  00000-0  15285-3 0  9993,2 50193  53.2155 226.4357 0000821  83.3446 276.7640 15.08842446 79290,6917.873,95.437,540.306,539.17,0.0
50193.0,STARLINK-3261,PAYLOAD,2023-05-05 12:52:56,15.08846882,9.05e-05,53.2157,224.0568,81.4566,278.6528,0.00028106,4.189e-05,0.0,0 STARLINK-3261,1 50193U 21125AP  23125.53676069  .00004189  00000-0  28106-3 0  9996,2 50193  53.2157 224.0568 0000905  81.4566 278.6528 15.08846882 79907,6917.859,95.437,540.35,539.098,0.0
50193.0,STARLINK-3261,PAYLOAD,2023-05-06 06:22:10,15.08842335,0.0001098,53.2164,220.7875,80.7397,279.3719,0.00014703,2.053e-05,0.0,0 STARLINK-3261,1 50193U 21125AP  23126.26540329  .00002053  00000-0  14703-3 0  9992,2 50193  53.2164 220.7875 0001098  80.7397 279.3719 15.08842335 79489,6917.873,95.437,540.498,538.979,0.0
50193.0,STARLINK-3261,PAYLOAD,2023-05-06 12:43:43,15.08846817,9.84e-05,53.216,219.5959,96.4107,263.6997,0.00012685,1.732e-05,0.0,0 STARLINK-3261,1 50193U 21125AP  23126.53036040  .00001732  00000-0  12685-3 0  9992,2 50193  53.2160 219.5959 0000984  96.4107 263.6997 15.08846817 80058,6917.86,95.437,540.405,539.044,0.0
50193.0,STARLINK-3261,PAYLOAD,2023-05-07 12:34:30,15.08844943,9.08e-05,53.2143,215.1373,68.9087,291.2002,7.5973e-05,9.22e-06,0.0,0 STARLINK-3261,1 50193U 21125AP  23127.52396085  .00000922  00000-0  75973-4 0  9990,2 50193  53.2143 215.1373 0000908  68.9087 291.2002 15.08844943 79676,6917.865,95.437,540.358,539.102,0.0
50193.0,STARLINK-3261,PAYLOAD,2023-05-08 12:25:17,15.08841535,8.62e-05,53.2144,210.6756,94.0262,266.0828,0.00010167,1.331e-05,0.0,0 STARLINK-3261,1 50193U 21125AP  23128.51756254  .00001331  00000-0  10167-3 0  9996,2 50193  53.2144 210.6756 0000862  94.0262 266.0828 15.08841535 79823,6917.876,95.437,540.337,539.144,0.0
50193.0,STARLINK-3261,PAYLOAD,2023-05-09 10:40:41,15.08841245,8.3e-05,53.214,206.5128,94.308,265.8006,-6.243e-06,-3.87e-06,0.0,0 STARLINK-3261,1 50193U 21125AP  23129.44492297 -.00000387  00000-0 -62430-5 0  9997,2 50193  53.2140 206.5128 0000830  94.3080 265.8006 15.08841245 80490,6917.877,95.437,540.316,539.167,0.0
50193.0,STARLINK-3261,PAYLOAD,2023-05-10 12:06:52,15.088377,9.12e-05,53.2157,201.7559,87.499,272.6107,4.6705e-05,4.56e-06,0.0,0 STARLINK-3261,1 50193U 21125AP  23130.50477017  .00000456  00000-0  46705-4 0  9990,2 50193  53.2157 201.7559 0000912  87.4990 272.6107 15.08837700 80654,6917.887,95.438,540.383,539.122,0.0
50193.0,STARLINK-3261,PAYLOAD,2023-05-11 10:22:15,15.08854533,8.88e-05,53.2147,197.5921,80.3149,279.7943,-0.00030888,-5.202e-05,0.0,0 STARLINK-3261,1 50193U 21125AP  23131.43212191 -.00005202  00000-0 -30888-3 0  9993,2 50193  53.2147 197.5921 0000888  80.3149 279.7943 15.08854533 80792,6917.836,95.437,540.315,539.087,0.0
50193.0,STARLINK-3261,PAYLOAD,2023-05-11 21:29:57,15.08842449,0.0001036,53.215,195.5106,78.0236,282.0872,0.00011618,1.562e-05,0.0,0 STARLINK-3261,1 50193U 21125AP  23131.89580859  .00001562  00000-0  11618-3 0  9995,2 50193  53.2150 195.5106 0001036  78.0236 282.0872 15.08842449 80337,6917.873,95.437,540.455,539.021,0.0
50193.0,STARLINK-3261,PAYLOAD,2023-05-11 23:05:21,15.08838051,0.0001035,53.2148,195.2135,80.8789,279.232,0.00020486,2.974e-05,0.0,0 STARLINK-3261,1 50193U 21125AP  23131.96205085  .00002974  00000-0  20486-3 0  9999,2 50193  53.2148 195.2135 0001035  80.8789 279.2320 15.08838051 80875,6917.886,95.438,540.467,539.035,0.0
50193.0,STARLINK-3261,PAYLOAD,2023-05-12 08:37:40,15.08834967,0.0001034,53.2148,193.4292,81.1459,278.965,0.00012293,1.669e-05,0.0,0 STARLINK-3261,1 50193U 21125AP  23132.35949385  .00001669  00000-0  12293-3 0  9998,2 50193  53.2148 193.4292 0001034  81.1459 278.9650 15.08834967 80937,6917.896,95.438,540.476,539.045,0.0
50193.0,STARLINK-3261,PAYLOAD,2023-05-12 21:20:45,15.08836552,0.0001082,53.2148,191.0503,81.6919,278.4196,0.00026523,3.935e-05,0.0,0 STARLINK-3261,1 50193U 21125AP  23132.88941490  .00003935  00000-0  26523-3 0  9994,2 50193  53.2148 191.0503 0001082  81.6919 278.4196 15.08836552 80487,6917.891,95.438,540.504,539.007,0.0
50193.0,STARLINK-3261,PAYLOAD,2023-05-13 10:03:50,15.08844841,0.0001037,53.2146,188.67,84.1858,275.9253,0.00014654,2.045e-05,0.0,0 STARLINK-3261,1 50193U 21125AP  23133.41932934  .00002045  00000-0  14654-3 0  9990,2 50193  53.2146 188.6700 0001037  84.1858 275.9253 15.08844841 81090,6917.866,95.437,540.448,539.013,0.0
50193.0,STARLINK-3261,PAYLOAD,2023-05-13 21:11:32,15.08841729,0.0001035,53.2148,186.5887,82.3705,277.7404,8.8394e-05,1.119e-05,0.0,0 STARLINK-3261,1 50193U 21125AP  23133.88301048  .00001119  00000-0  88394-4 0  9991,2 50193  53.2148 186.5887 0001035  82.3705 277.7404 15.08841729 81162,6917.875,95.437,540.456,539.024,0.0
50193.0,STARLINK-3261,PAYLOAD,2023-05-14 08:19:14,15.08844288,0.000124,53.2157,184.5089,73.9226,286.1902,-8.3469e-05,-1.616e-05,0.0,0 STARLINK-3261,1 50193U 21125AP  23134.34669242 -.00001616  00000-0 -83469-4 0  9998,2 50193  53.2157 184.5089 0001240  73.9226 286.1902 15.08844288 80705,6917.867,95.437,540.59,538.874,0.0
50193.0,STARLINK-3261,PAYLOAD,2023-05-14 09:54:37,15.08828674,0.0001146,53.2158,184.2113,71.5468,288.5649,0.00017456,2.491e-05,0.0,0 STARLINK-3261,1 50193U 21125AP  23134.41293810  .00002491  00000-0  17456-3 0  9992,2 50193  53.2158 184.2113 0001146  71.5468 288.5649 15.08828674 80714,6917.915,95.438,540.573,538.987,0.0
50193.0,STARLINK-3261,PAYLOAD,2023-05-15 06:34:38,15.08839933,0.0001124,53.2157,180.3442,82.4308,277.6812,1.7214e-05,-1.4e-07,0.0,0 STARLINK-3261,1 50193U 21125AP  23135.27405315 -.00000014  00000-0  17214-4 0  9995,2 50193  53.2157 180.3442 0001124  82.4308 277.6812 15.08839933 80840,6917.881,95.438,540.523,538.968,0.0
50193.0,STARLINK-3261,PAYLOAD,2023-05-15 09:45:24,15.08840462,0.0001089,53.2157,179.7501,87.4414,272.6703,2.9018e-05,1.74e-06,0.0,0 STARLINK-3261,1 50193U 21125AP  23135.40653200  .00000174  00000-0  29018-4 0  9999,2 50193  53.2157 179.7501 0001089  87.4414 272.6703 15.08840462 81395,6917.879,95.438,540.497,538.991,0.0
50193.0,STARLINK-3261,PAYLOAD,2023-05-16 09:36:11,15.08836037,0.000107,53.2155,175.2903,86.45,273.6615,5.0747e-05,5.2e-06,0.0,0 STARLINK-3261,1 50193U 21125AP  23136.40013627  .00000520  00000-0  50747-4 0  9991,2 50193  53.2155 175.2903 0001070  86.4500 273.6615 15.08836037 81010,6917.893,95.438,540.498,539.017,0.0
50193.0,STARLINK-3261,PAYLOAD,2023-05-16 19:08:30,15.08835896,0.0001061,53.2153,173.5058,84.8358,275.2755,3.7588e-05,3.1e-06,0.0,0 STARLINK-3261,1 50193U 21125AP  23136.79757729  .00000310  00000-0  37588-4 0  9996,2 50193  53.2153 173.5058 0001061  84.8358 275.2755 15.08835896 81603,6917.893,95.438,540.492,539.024,0.0
50193.0,STARLINK-3261,PAYLOAD,2023-05-17 18:59:17,15.08836898,0.0001069,53.2152,169.0442,81.4017,278.7097,4.5369e-05,4.34e-06,0.0,0 STARLINK-3261,1 50193U 21125AP  23137.79117803  .00000434  00000-0  45369-4 0  9993,2 50193  53.2152 169.0442 0001069  81.4017 278.7097 15.08836898 81220,6917.89,95.438,540.494,539.015,0.0
50193.0,STARLINK-3261,PAYLOAD,2023-05-18 10:53:09,15.08836288,0.0001054,53.2155,166.0705,88.3005,271.8108,3.2494e-05,2.29e-06,0.0,0 STARLINK-3261,1 50193U 21125AP  23138.45357993  .00000229  00000-0  32494-4 0  9990,2 50193  53.2155 166.0705 0001054  88.3005 271.8108 15.08836288 81858,6917.892,95.438,540.486,539.028,0.0
50193.0,STARLINK-3261,PAYLOAD,2023-05-19 09:08:32,15.08840963,0.0001049,53.2156,161.9074,88.0423,272.0689,5.6277e-05,6.08e-06,0.0,0 STARLINK-3261,1 50193U 21125AP  23139.38093691  .00000608  00000-0  56277-4 0  9991,2 50193  53.2156 161.9074 0001049  88.0423 272.0689 15.08840963 81466,6917.877,95.437,540.468,539.017,0.0
50193.0,STARLINK-3261,PAYLOAD,2023-05-19 18:40:51,15.08840365,0.0001046,53.2156,160.1232,86.8211,273.29,4.8258e-05,4.8e-06,0.0,0 STARLINK-3261,1 50193U 21125AP  23139.77837733  .00000480  00000-0  48258-4 0  9995,2 50193  53.2156 160.1232 0001046  86.8211 273.2900 15.08840365 82052,6917.879,95.438,540.468,539.021,0.0
50193.0,STARLINK-3261,PAYLOAD,2023-05-20 18:31:38,15.08844559,0.0001071,53.2156,155.6631,84.6199,275.4916,7.5244e-05,9.1e-06,0.0,0 STARLINK-3261,1 50193U 21125AP  23140.77197356  .00000910  00000-0  75244-4 0  9990,2 50193  53.2156 155.6631 0001071  84.6199 275.4916 15.08844559 81670,6917.866,95.437,540.472,538.991,0.0
50193.0,STARLINK-3261,PAYLOAD,2023-05-21 10:25:29,15.08844235,0.0001126,53.216,152.6902,80.7127,279.3993,4.6807e-05,4.57e-06,0.0,0 STARLINK-3261,1 50193U 21125AP  23141.43437299  .00000457  00000-0  46807-4 0  9996,2 50193  53.2160 152.6902 0001126  80.7127 279.3993 15.08844235 82302,6917.867,95.437,540.511,538.953,0.0
50193.0,STARLINK-3261,PAYLOAD,2023-05-21 18:22:26,15.08833755,9.9e-05,53.2151,151.2006,90.2901,269.8204,-3.3809e-05,-8.26e-06,0.0,0 STARLINK-3261,1 50193U 21125AP  23141.76558123 -.00000826  00000-0 -33809-4 0  9992,2 50193  53.2151 151.2006 0000990  90.2901 269.8204 15.08833755 81826,6917.899,95.438,540.449,539.08,0.0
50193.0,STARLINK-3261,PAYLOAD,2023-05-22 07:05:32,15.08825781,0.000108,53.2155,148.8221,89.4057,270.7059,-9.1982e-05,-1.751e-05,0.0,0 STARLINK-3261,1 50193U 21125AP  23142.29551157 -.00001751  00000-0 -91982-4 0  9995,2 50193  53.2155 148.8221 0001080  89.4057 270.7059 15.08825781 81902,6917.924,95.438,540.536,539.042,0.0
